EXO-0                   
1 59175U 23174DK  26068.71046781  .00011582  00000+0  36716-3 0  9992
2 59175  97.3864 148.9039 0009878 157.1125 203.0559 15.32821991129797
STARLINK-33566          
1 62100U 24220N   26068.38070357  .00032113  00000+0  11707-2 0  9991
2 62100  43.0033 192.5791 0002914 270.6641  89.3877 15.27597971 73319
